HAWK-7B                 
1 56193U 23054R   26068.68903567  .00007955  00000+0  31011-3 0  9998
2 56193  97.2859 316.7839 0003661  61.5878 298.5730 15.26206341161848
STARLINK-30896          
1 58353U 23177C   26068.42455781  .00000295  00000+0  20241-4 0  9990
2 58353  42.9994 210.2995 0000928 271.5570  88.5175 15.27575550129791
